<?xml version="1.0" encoding="UTF-8"?>
<ndm xmlns:xsi="http://www.w3.org/2001/XMLSchema-instance" xsi:noNamespaceSchemaLocation="https://sanaregistry.org/r/ndmxml_unqualified/ndmxml-2.0.0-master-2.0.xsd">
<omm id="CCSDS_OMM_VERS" version="2.0">
<header><CREATION_DATE/><ORIGINATOR/></header><body><segment><metadata><OBJECT_NAME>EUTELSAT 7A</OBJECT_NAME><OBJECT_ID>2004-008A</OBJECT_ID><CENTER_NAME>EARTH</CENTER_NAME><REF_FRAME>TEME</REF_FRAME><TIME_SYSTEM>UTC</TIME_SYSTEM><MEAN_ELEMENT_THEORY>SGP4</MEAN_ELEMENT_THEORY></metadata><data><meanElements><EPOCH>2025-10-05T04:57:36.384768</EPOCH><MEAN_MOTION>1.00273384</MEAN_MOTION><ECCENTRICITY>.0001077</ECCENTRICITY><INCLINATION>5.1775</INCLINATION><RA_OF_ASC_NODE>75.0348</RA_OF_ASC_NODE><ARG_OF_PERICENTER>145.7528</ARG_OF_PERICENTER><MEAN_ANOMALY>88.5700</MEAN_ANOMALY></meanElements><tleParameters><EPHEMERIS_TYPE>0</EPHEMERIS_TYPE><CLASSIFICATION_TYPE>U</CLASSIFICATION_TYPE><NORAD_CAT_ID>28187</NORAD_CAT_ID><ELEMENT_SET_NO>999</ELEMENT_SET_NO><REV_AT_EPOCH>7879</REV_AT_EPOCH><BSTAR>0</BSTAR><MEAN_MOTION_DOT>.109E-5</MEAN_MOTION_DOT><MEAN_MOTION_DDOT>0</MEAN_MOTION_DDOT></tleParameters></data></segment></body></omm>
<omm id="CCSDS_OMM_VERS" version="2.0">
<header><CREATION_DATE/><ORIGINATOR/></header><body><segment><metadata><OBJECT_NAME>EUTELSAT 174A</OBJECT_NAME><OBJECT_ID>2005-052A</OBJECT_ID><CENTER_NAME>EARTH</CENTER_NAME><REF_FRAME>TEME</REF_FRAME><TIME_SYSTEM>UTC</TIME_SYSTEM><MEAN_ELEMENT_THEORY>SGP4</MEAN_ELEMENT_THEORY></metadata><data><meanElements><EPOCH>2025-10-05T04:19:38.758080</EPOCH><MEAN_MOTION>1.00271153</MEAN_MOTION><ECCENTRICITY>.0006261</ECCENTRICITY><INCLINATION>3.5678</INCLINATION><RA_OF_ASC_NODE>79.6755</RA_OF_ASC_NODE><ARG_OF_PERICENTER>115.9452</ARG_OF_PERICENTER><MEAN_ANOMALY>57.4187</MEAN_ANOMALY></meanElements><tleParameters><EPHEMERIS_TYPE>0</EPHEMERIS_TYPE><CLASSIFICATION_TYPE>U</CLASSIFICATION_TYPE><NORAD_CAT_ID>28924</NORAD_CAT_ID><ELEMENT_SET_NO>999</ELEMENT_SET_NO><REV_AT_EPOCH>4977</REV_AT_EPOCH><BSTAR>0</BSTAR><MEAN_MOTION_DOT>.14E-6</MEAN_MOTION_DOT><MEAN_MOTION_DDOT>0</MEAN_MOTION_DDOT></tleParameters></data></segment></body></omm>
<omm id="CCSDS_OMM_VERS" version="2.0">
<header><CREATION_DATE/><ORIGINATOR/></header><body><segment><metadata><OBJECT_NAME>EUTELSAT HOTBIRD 13B</OBJECT_NAME><OBJECT_ID>2006-032A</OBJECT_ID><CENTER_NAME>EARTH</CENTER_NAME><REF_FRAME>TEME</REF_FRAME><TIME_SYSTEM>UTC</TIME_SYSTEM><MEAN_ELEMENT_THEORY>SGP4</MEAN_ELEMENT_THEORY></metadata><data><meanElements><EPOCH>2025-10-05T03:29:08.018880</EPOCH><MEAN_MOTION>1.00270762</MEAN_MOTION><ECCENTRICITY>.0003851</ECCENTRICITY><INCLINATION>0.9965</INCLINATION><RA_OF_ASC_NODE>85.0051</RA_OF_ASC_NODE><ARG_OF_PERICENTER>101.2905</ARG_OF_PERICENTER><MEAN_ANOMALY>273.1646</MEAN_ANOMALY></meanElements><tleParameters><EPHEMERIS_TYPE>0</EPHEMERIS_TYPE><CLASSIFICATION_TYPE>U</CLASSIFICATION_TYPE><NORAD_CAT_ID>29270</NORAD_CAT_ID><ELEMENT_SET_NO>999</ELEMENT_SET_NO><REV_AT_EPOCH>4475</REV_AT_EPOCH><BSTAR>0</BSTAR><MEAN_MOTION_DOT>.158E-5</MEAN_MOTION_DOT><MEAN_MOTION_DDOT>0</MEAN_MOTION_DDOT></tleParameters></data></segment></body></omm>
<omm id="CCSDS_OMM_VERS" version="2.0">
<header><CREATION_DATE/><ORIGINATOR/></header><body><segment><metadata><OBJECT_NAME>EUTELSAT HOTBIRD 13C</OBJECT_NAME><OBJECT_ID>2008-065A</OBJECT_ID><CENTER_NAME>EARTH</CENTER_NAME><REF_FRAME>TEME</REF_FRAME><TIME_SYSTEM>UTC</TIME_SYSTEM><MEAN_ELEMENT_THEORY>SGP4</MEAN_ELEMENT_THEORY></metadata><data><meanElements><EPOCH>2025-10-05T03:16:09.262848</EPOCH><MEAN_MOTION>1.00271707</MEAN_MOTION><ECCENTRICITY>.0005354</ECCENTRICITY><INCLINATION>2.2886</INCLINATION><RA_OF_ASC_NODE>82.1978</RA_OF_ASC_NODE><ARG_OF_PERICENTER>134.1824</ARG_OF_PERICENTER><MEAN_ANOMALY>194.2513</MEAN_ANOMALY></meanElements><tleParameters><EPHEMERIS_TYPE>0</EPHEMERIS_TYPE><CLASSIFICATION_TYPE>U</CLASSIFICATION_TYPE><NORAD_CAT_ID>33459</NORAD_CAT_ID><ELEMENT_SET_NO>999</ELEMENT_SET_NO><REV_AT_EPOCH>4478</REV_AT_EPOCH><BSTAR>0</BSTAR><MEAN_MOTION_DOT>-.97E-6</MEAN_MOTION_DOT><MEAN_MOTION_DDOT>0</MEAN_MOTION_DDOT></tleParameters></data></segment></body></omm>
<omm id="CCSDS_OMM_VERS" version="2.0">
<header><CREATION_DATE/><ORIGINATOR/></header><body><segment><metadata><OBJECT_NAME>EUTELSAT 36B</OBJECT_NAME><OBJECT_ID>2009-065A</OBJECT_ID><CENTER_NAME>EARTH</CENTER_NAME><REF_FRAME>TEME</REF_FRAME><TIME_SYSTEM>UTC</TIME_SYSTEM><MEAN_ELEMENT_THEORY>SGP4</MEAN_ELEMENT_THEORY></metadata><data><meanElements><EPOCH>2025-10-05T03:34:07.540896</EPOCH><MEAN_MOTION>1.00271397</MEAN_MOTION><ECCENTRICITY>.0006134</ECCENTRICITY><INCLINATION>0.0246</INCLINATION><RA_OF_ASC_NODE>23.4498</RA_OF_ASC_NODE><ARG_OF_PERICENTER>178.6109</ARG_OF_PERICENTER><MEAN_ANOMALY>276.0282</MEAN_ANOMALY></meanElements><tleParameters><EPHEMERIS_TYPE>0</EPHEMERIS_TYPE><CLASSIFICATION_TYPE>U</CLASSIFICATION_TYPE><NORAD_CAT_ID>36101</NORAD_CAT_ID><ELEMENT_SET_NO>999</ELEMENT_SET_NO><REV_AT_EPOCH>5815</REV_AT_EPOCH><BSTAR>0</BSTAR><MEAN_MOTION_DOT>0</MEAN_MOTION_DOT><MEAN_MOTION_DDOT>0</MEAN_MOTION_DDOT></tleParameters></data></segment></body></omm>
<omm id="CCSDS_OMM_VERS" version="2.0">
<header><CREATION_DATE/><ORIGINATOR/></header><body><segment><metadata><OBJECT_NAME>EUTELSAT KA-SAT 9A</OBJECT_NAME><OBJECT_ID>2010-069A</OBJECT_ID><CENTER_NAME>EARTH</CENTER_NAME><REF_FRAME>TEME</REF_FRAME><TIME_SYSTEM>UTC</TIME_SYSTEM><MEAN_ELEMENT_THEORY>SGP4</MEAN_ELEMENT_THEORY></metadata><data><meanElements><EPOCH>2025-10-05T03:22:16.176864</EPOCH><MEAN_MOTION>1.00269689</MEAN_MOTION><ECCENTRICITY>.0002662</ECCENTRICITY><INCLINATION>0.0579</INCLINATION><RA_OF_ASC_NODE>323.9301</RA_OF_ASC_NODE><ARG_OF_PERICENTER>200.4271</ARG_OF_PERICENTER><MEAN_ANOMALY>269.3115</MEAN_ANOMALY></meanElements><tleParameters><EPHEMERIS_TYPE>0</EPHEMERIS_TYPE><CLASSIFICATION_TYPE>U</CLASSIFICATION_TYPE><NORAD_CAT_ID>37258</NORAD_CAT_ID><ELEMENT_SET_NO>999</ELEMENT_SET_NO><REV_AT_EPOCH>4144</REV_AT_EPOCH><BSTAR>0</BSTAR><MEAN_MOTION_DOT>.63E-6</MEAN_MOTION_DOT><MEAN_MOTION_DDOT>0</MEAN_MOTION_DDOT></tleParameters></data></segment></body></omm>
<omm id="CCSDS_OMM_VERS" version="2.0">
<header><CREATION_DATE/><ORIGINATOR/></header><body><segment><metadata><OBJECT_NAME>EUTELSAT 7 WEST A</OBJECT_NAME><OBJECT_ID>2011-051A</OBJECT_ID><CENTER_NAME>EARTH</CENTER_NAME><REF_FRAME>TEME</REF_FRAME><TIME_SYSTEM>UTC</TIME_SYSTEM><MEAN_ELEMENT_THEORY>SGP4</MEAN_ELEMENT_THEORY></metadata><data><meanElements><EPOCH>2025-10-05T03:17:39.119712</EPOCH><MEAN_MOTION>1.00271578</MEAN_MOTION><ECCENTRICITY>.0006487</ECCENTRICITY><INCLINATION>0.0653</INCLINATION><RA_OF_ASC_NODE>14.2022</RA_OF_ASC_NODE><ARG_OF_PERICENTER>180.1817</ARG_OF_PERICENTER><MEAN_ANOMALY>221.8098</MEAN_ANOMALY></meanElements><tleParameters><EPHEMERIS_TYPE>0</EPHEMERIS_TYPE><CLASSIFICATION_TYPE>U</CLASSIFICATION_TYPE><NORAD_CAT_ID>37816</NORAD_CAT_ID><ELEMENT_SET_NO>999</ELEMENT_SET_NO><REV_AT_EPOCH>5132</REV_AT_EPOCH><BSTAR>0</BSTAR><MEAN_MOTION_DOT>-.59E-6</MEAN_MOTION_DOT><MEAN_MOTION_DDOT>0</MEAN_MOTION_DDOT></tleParameters></data></segment></body></omm>
<omm id="CCSDS_OMM_VERS" version="2.0">
<header><CREATION_DATE/><ORIGINATOR/></header><body><segment><metadata><OBJECT_NAME>EUTELSAT 16A</OBJECT_NAME><OBJECT_ID>2011-057A</OBJECT_ID><CENTER_NAME>EARTH</CENTER_NAME><REF_FRAME>TEME</REF_FRAME><TIME_SYSTEM>UTC</TIME_SYSTEM><MEAN_ELEMENT_THEORY>SGP4</MEAN_ELEMENT_THEORY></metadata><data><meanElements><EPOCH>2025-10-05T03:24:15.986016</EPOCH><MEAN_MOTION>1.00273559</MEAN_MOTION><ECCENTRICITY>.0005401</ECCENTRICITY><INCLINATION>0.0672</INCLINATION><RA_OF_ASC_NODE>13.0655</RA_OF_ASC_NODE><ARG_OF_PERICENTER>182.9452</ARG_OF_PERICENTER><MEAN_ANOMALY>245.1307</MEAN_ANOMALY></meanElements><tleParameters><EPHEMERIS_TYPE>0</EPHEMERIS_TYPE><CLASSIFICATION_TYPE>U</CLASSIFICATION_TYPE><NORAD_CAT_ID>37836</NORAD_CAT_ID><ELEMENT_SET_NO>999</ELEMENT_SET_NO><REV_AT_EPOCH>477</REV_AT_EPOCH><BSTAR>0</BSTAR><MEAN_MOTION_DOT>.105E-5</MEAN_MOTION_DOT><MEAN_MOTION_DDOT>0</MEAN_MOTION_DDOT></tleParameters></data></segment></body></omm>

</ndm>
