EUTELSAT 7A             
1 28187U 04008A   25278.20667112  .00000109  00000+0  00000+0 0  9995
2 28187   5.1775  75.0348 0001077 145.7528  88.5700  1.00273384 78794
EUTELSAT 174A           
1 28924U 05052A   25278.18030970  .00000014  00000+0  00000+0 0  9992
2 28924   3.5678  79.6755 0006261 115.9452  57.4187  1.00271153 49776
EUTELSAT HOTBIRD 13B    
1 29270U 06032A   25278.14523170  .00000158  00000+0  00000+0 0  9990
2 29270   0.9965  85.0051 0003851 101.2905 273.1646  1.00270762 44759
EUTELSAT HOTBIRD 13C    
1 33459U 08065A   25278.13621832 -.00000097  00000+0  00000+0 0  9998
2 33459   2.2886  82.1978 0005354 134.1824 194.2513  1.00271707 44780
EUTELSAT 36B            
1 36101U 09065A   25278.14869839  .00000000  00000+0  00000+0 0  9991
2 36101   0.0246  23.4498 0006134 178.6109 276.0282  1.00271397 58157
EUTELSAT KA-SAT 9A      
1 37258U 10069A   25278.14046501  .00000063  00000+0  00000+0 0  9993
2 37258   0.0579 323.9301 0002662 200.4271 269.3115  1.00269689 41442
EUTELSAT 7 WEST A       
1 37816U 11051A   25278.13725833 -.00000059  00000+0  00000+0 0  9992
2 37816   0.0653  14.2022 0006487 180.1817 221.8098  1.00271578 51325
EUTELSAT 16A            
1 37836U 11057A   25278.14185169  .00000105  00000+0  00000+0 0  9994
2 37836   0.0672  13.0655 0005401 182.9452 245.1307  1.00273559  4777
